numberino,Full Site Address,City,State,Zip
1,130 W Third,Palisade,CO,81526
2,235 S Main,Palisade,CO,81526
3,626 Rood Ave,Grand Junction,CO,81501
4,580 33 3/4 Rd,Clifton,CO,81520
5,2901 F Rd,Grand Junction,CO,81504
6,681 Horizon Dr,Grand Junction,CO,81506
7,2512 Broadway,Grand Junction,CO,81507
8,1100 North Ave,Grand Junction,CO,81501
9,569 32 Rd #14,Clifton,CO,81504
10,711 Horizon Dr,Grand Junction,CO,81506
11,603 S Highway 50,Grand Junction,CO,81503
12,705 Horizon Dr,Grand Junction,CO,81506
13,2472 Patterson Rd #2,Grand Junction,CO,81505
14,57482 Highway 330,Collbran,CO,81624
15,2913 Patterson Rd,Grand Junction,CO,81501
16,225 N 5th St,Grand Junction,CO,81501
17,10983 Highway 65,Mesa,CO,81643
18,120 N 7th St,Grand Junction,CO,81501
19,569 32 Rd,Grand Junction,CO,81504
20,2730 G Rd,Grand Junction,CO,81506
21,2404 Patterson Rd,Grand Junction,CO,81505
22,2531 N 12th St,Grand Junction,CO,81501
23,2412 Patterson Rd # 3,Grand Junction,CO,81505
24,420 Main St,Grand Junction,CO,81501
25,206 E Aspen Ave,Fruita,CO,81521
26,1369 12 1/2 Rd,Loma,CO,81524
27,584 24 1/2 Rd,Grand Junction,CO,81505
28,3210 I 70 Business Loop,Clifton,CO,81520
29,569 32 Rd #7A,Grand Junction,CO,81504
30,2424 Highway 6 and 50,Grand Junction,CO,81505
31,1037 North Ave,Grand Junction,CO,81501
32,759 Horizon Dr,Grand Junction,CO,81506
33,2057 South Broadway,Grand Junction,CO,81507
34,2600 N 12th St,Grand Junction,CO,81501
35,108 Main St,Collbran,CO,81624
36,1012 N 5th St,Grand Junction,CO,81501
37,2430 Patterson Rd # A,Grand Junction,CO,81505
38,710 Horizon Dr,Grand Junction,CO,81506
39,3205 I 70 Business Loop,Clifton,CO,81520
40,1125 North Ave,Grand Junction,CO,81503
41,3245 I 70 Business Loop,Clifton,CO,81521
42,743 Horizon Dr,Grand Junction,CO,81506
43,576 Kokopelli Blvd # a,Fruita,CO,81521
44,2740 Highway 50,Grand Junction,CO,81503
45,314 Main St,Grand Junction,CO,81501
46,1674 Highway 50,Grand Junction,CO,81503
47,200 W Grand Ave # 10,Grand Junction,CO,81501
48,905 Struthers Ave,Grand Junction,CO,81501
49,3258 1/2 F Rd,Clifton,CO,81520
50,1145 North Ave,Grand Junction,CO,81501
51,402 Jurassic Ave,Fruita,CO,81521
52,43200 Highway 141,Gateway,CO,81522
53,3235 I 70 Business Loop,Clifton,CO,81520
54,707 Horizon Dr,Grand Junction,CO,81506
55,2440 Highway 6 and 50 # J,Grand Junction,CO,81505
56,359 Colorado Ave,Grand Junction,CO,81501
57,710 North Ave,Grand Junction,CO,81501
58,103 Highway 6 and 50,Fruita,CO,81521
59,1455 N 12th St,Grand Junction,CO,81501
60,200 W Grand Ave # 5,Grand Junction,CO,81505
61,2474 Highway 6 and 50,Grand Junction,CO,81505
62,2381 Patterson Rd Unit 111,Grand Junction,CO,81505
63,1100 Independent Ave,Grand Junction,CO,81505
64,2958 North Ave,Grand Junction,CO,81504
65,2504 Highway 6 and 50,Grand Junction,CO,81505
66,245 S 1st St,Grand Junction,CO,81501
67,2790 Crossroads Blvd,Grand Junction,CO,81506
68,417 Monument Rd #1,Grand Junction,CO,81507
69,2751 Crossroads Blvd,Grand Junction,CO,81506
70,124 N Mulberry St,Fruita,CO,81521
71,2420 Highway 6 and 50,Grand Junction,CO,81505
72,400 Main St,Grand Junction,CO,81501
73,336 Main St,Palisade,CO,81526
74,200 Rood Ave,Grand Junction,CO,81501
75,630 24 Rd,Grand Junction,CO,81505
76,435 US Highway 6 & 50,Fruita,CO,81521
77,119 N 7th St,Grand Junction,CO,81501
78,1960 N 12th St,Grand Junction,CO,81501
79,2695 Patterson Rd,Grand Junction,CO,81506
80,421 Brach,Grand Junction,CO,81507
81,118 S 7th St,Grand Junction,CO,81501
82,317 Main St,Grand Junction,CO,81501
83,507 30 Rd,Clifton,CO,81520
84,2301 North Ave,Grand Junction,CO,81501
85,2812 North Ave,Grand Junction,CO,81501
86,504 Main St,Grand Junction,CO,81501
87,230 E Lynwood St Unit H,Grand Junction,CO,81503
88,3619 US Highway 65,Mesa,CO,81643
89,2480 Highway 6 & 50,Grand Junction,CO,81505
90,439 Highway 6 & 50,Fruita,CO,81521
91,567 25 1/2 Rd,Grand Junction,CO,81505
92,550 Kokopelli Blvd,Fruita,CO,81521
93,546 Main St,Grand Junction,CO,81501
94,2692 Highway 50,Grand Junction,CO,81501
95,356 Main St,Grand Junction,CO,81501
96,1119 N 1st St,Grand Junction,CO,81501
97,120 North Ave,Grand Junction,CO,81501
98,644 North Ave,Grand Junction,CO,81501
99,2416 Highway 6 and 50,Grand Junction,CO,81505
100,2432 Highway 6 & 50,Grand Junction,CO,81505
101,2493 Highway 6 and 50 #4,Grand Junction,CO,81505
102,200 Peach St,Palisade,CO,81526
103,721 Peach Ave,Palisade,CO,81526
104,755 Horizon Dr,Grand Junction,CO,81506
105,43200 Highway 141,Gateway,CO,81522
106,2463 Patterson Rd,Grand Junction,CO,81505
107,683 Horizon Dr,Grand Junction,CO,81506
108,304 North Ave,Grand Junction,CO,81501
109,48338 Powderhorn Rd,Mesa,CO,81643
110,337 S 1st St,Grand Junction,CO,81501
111,2536 Rimrock,Grand Junction,CO,81505
112,2510 N 12th St Ste A,Grand Junction,CO,81506
113,592 32 Rd,Clifton,CO,81520
114,733 Horizon Dr,Grand Junction,CO,81506
115,2704 S Highway 50,Grand Junction,CO,81503
116,569 1/2 32 Rd,Clifton,CO,81520
117,2430 North Ave,Grand Junction,CO,81501
118,575 24 1/2 Rd,Grand Junction,CO,81505
119,2530 Rimrock Ave,Grand Junction,CO,81505
120,550 South Ave,Grand Junction,CO,81501
121,1455 N 12th St,Grand Junction,CO,81501
122,2931 North Ave # 46,Grand Junction,CO,81504
123,2836 North Ave,Grand Junction,CO,81501
124,455 Kokopelli Blv # E,Fruita,CO,81521
125,401 Main St,Grand Junction,CO,81501
126,2210 Highway 6 & 50,Grand Junction,CO,81505
127,687 Horizon Dr,Grand Junction,CO,81506
128,545 North Ave Ste A,Grand Junction,CO,81504
129,1040 Independent Ave,Grand Junction,CO,81505
130,3247 F Rd,Clifton,CO,81520
131,555 Raptor Rd,Fruita,CO,81521
132,456 Kokopelli Dr,Fruita,CO,81521
133,127 E Aspen Ave,Fruita,CO,81521
134,541 Main St,Grand Junction,CO,81501
135,811 S 7th St,Grand Junction,CO,81504
136,126 S 5th St,Grand Junction,CO,81501
137,719 Pitkin Ave,Grand Junction,CO,81501
138,683 Horizon Dr #112,Grand Junction,CO,81506
139,752 1/2 Horizon Dr,Grand Junction,CO,81506
140,2454 Highway 6 and 50,Grand Junction,CO,81505
141,2560 North Ave,Grand Junction,CO,81501
142,2424 Highway 6 and 50,Grand Junction,CO,81505
143,2870 North Ave,Grand Junction,CO,81501
144,2536 Rimrock Ave,Grand Junction,CO,81505
145,539 N 1st St,Grand Junction,CO,81501
146,2692 Highway 50 Ste E,Grand Junction,CO,81503
147,120 W Park Dr Ste 107,Grand Junction,CO,81505
148,637 24 1/2 Rd,Grand Junction,CO,81505
149,336 Main St Ste 104,Grand Junction,CO,81501
150,2325 W Ridges Blvd,Grand Junction,CO,81507
151,113 W 3rd St,Palisade,CO,81526
152,1235 N 4th St,Grand Junction,CO,81501
153,642 Main St,Grand Junction,CO,81501
154,2740 Highway 50,Grand Junction,CO,81503
155,159 Main St,Grand Junction,CO,81501
156,67270 64.6 Rd,Collbran,CO,81624
157,1404 Ute Ave,Grand Junction,CO,81501
158,757 Horizon Dr,Grand Junction,CO,81506
159,1910 North Ave,Grand Junction,CO,81501
160,330 North Ave,Grand Junction,CO,81501
161,753 Horizon Ct,Grand Junction,CO,81506
162,10900 Highway 65,Mesa,CO,81643
163,2565 American Way,Grand Junction,CO,81505
164,2594 Patterson Rd,Grand Junction,CO,81505
165,515 28 3/4 Rd,Grand Junction,CO,81501
166,2508 Blichman Ave,Grand Junction,CO,81505
167,777 Grande River Dr,Palisade,CO,81526
168,1810 North Ave,Grand Junction,CO,81501
169,2886 North Ave,Grand Junction,CO,81501
